0 THORAD AGENA D DEB
1 04458U 69082FB  14250.43990860  .05155409  10371+0  76037-2 0  6135
2 04458 069.7084 090.4185 0014960 242.2763 192.7929 16.12121065372927
0 SL-3 R/B
1 11683U 80008B   14280.61990580  .00200000  60000-4  49126-3 0  4700
2 11683 081.1603 284.3909 0006511 124.3283 235.8605 15.93622605905362
0 COSMOS 1400
1 13402U 82079A   14280.81108189  .00200000  60000-3  74912-3 0  4700
2 13402 081.1010 326.9731 0007127 264.1959 211.4033 16.14834365763277
0 ARIANE 1 DEB
1 17459U 86019GW  14250.65368575  .00464199  00000-0  38526-2 0  1314
2 17459 098.2104 105.4242 0003418 169.7752 190.3577 15.68777550480086
0 DELTA 1 DEB
1 21348U 75052BS  14250.69445316  .00587384  00000-0  21473-1 0  7897
2 21348 099.3507 122.1891 0021034 174.4135 223.9283 15.25688867190759
0 PEGASUS DEB
1 24501U 94029VA  14250.71455148  .00573944  00000-0  21057-2 0  9778
2 24501 082.0230 325.7887 0008795 162.5245 326.1161 15.86902926992102
0 PEGASUS DEB
1 24626U 94029AAE 14250.43879675  .00455611  00000-0  32166-2 0   381
2 24626 081.9607 036.0854 0018346 266.7898 151.4082 15.72541969982703
0 N-1 R/B(2)
1 25776U 79009C   14250.57481475  .01638954 -10450-4  12646-2 0  9199
2 25776 023.8789 353.5569 0565906 048.3784 057.5227 15.01631117573264